CCSDS_OMM_VERS,COMMENT,CREATION_DATE,ORIGINATOR,OBJECT_NAME,OBJECT_ID,CENTER_NAME,REF_FRAME,TIME_SYSTEM,MEAN_ELEMENT_THEORY,EPOCH,MEAN_MOTION,ECCENTRICITY,INCLINATION,RA_OF_ASC_NODE,ARG_OF_PERICENTER,MEAN_ANOMALY,EPHEMERIS_TYPE,CLASSIFICATION_TYPE,NORAD_CAT_ID,ELEMENT_SET_NO,REV_AT_EPOCH,BSTAR,MEAN_MOTION_DOT,MEAN_MOTION_DDOT,SEMIMAJOR_AXIS,PERIOD,APOAPSIS,PERIAPSIS,OBJECT_TYPE,RCS_SIZE,COUNTRY_CODE,LAUNCH_DATE,SITE,DECAY_DATE,FILE,GP_ID,TLE_LINE0,TLE_LINE1,TLE_LINE2,NORAD_KEY
3.0,GENERATED VIA SPACE-TRACK.ORG API,2026-05-06T07:56:53,18 SPCS,USA 170,2003-040A,EARTH,TEME,UTC,SGP4,2026-05-05T22:08:38.655168,1.00271276,0.0002249,10.4125,48.3423,11.1892,160.5402,0,U,27875,999,3257,0.00000000000000,0.00000133,0.0000000000000,42164.875,1436.104,35796.223,35777.257,PAYLOAD,LARGE,US,2003-08-29,AFETR,,5176801,322255497,0 USA 170,1 27875U 03040A   26125.92266962  .00000133  00000-0  00000+0 0  9990,2 27875  10.4125  48.3423 0002249  11.1892 160.5402  1.00271276 32578,27875
3.0,GENERATED VIA SPACE-TRACK.ORG API,2026-05-06T14:56:52,18 SPCS,EUTE 25A (HB 5),1998-057A,EARTH,TEME,UTC,SGP4,2026-05-06T11:25:15.688128,0.98453809,0.0015157,10.4313,51.13,29.8356,42.5188,0,U,25495,999,10005,0.00000000000000,0.00000000,0.0000000000000,42682.203,1462.615,36368.761,36239.374,PAYLOAD,LARGE,EUTE,1998-10-09,AFETR,,5177564,322307486,0 EUTE 25A (HB 5),1 25495U 98057A   26126.47587602  .00000000  00000-0  00000+0 0  9999,2 25495  10.4313  51.1300 0015157  29.8356  42.5188  0.98453809100051,25495
3.0,GENERATED VIA SPACE-TRACK.ORG API,2026-05-06T14:56:52,18 SPCS,NSS 5 (INTELSAT 803),1997-053A,EARTH,TEME,UTC,SGP4,2026-05-06T11:17:22.948800,0.99101283,0.0004248,10.4386,48.3193,255.7559,163.8072,0,U,24957,999,10454,0.00000000000000,0.00000058,0.0000000000000,42496.092,1453.059,36136.009,36099.904,PAYLOAD,LARGE,NETH,1997-09-23,FRGUI,,5177544,322306732,0 NSS 5 (INTELSAT 803),1 24957U 97053A   26126.47040450  .00000058  00000-0  00000+0 0  9994,2 24957  10.4386  48.3193 0004248 255.7559 163.8072  0.99101283104549,24957
3.0,GENERATED VIA SPACE-TRACK.ORG API,2026-05-06T10:08:52,18 SPCS,ASTRA 3A,2002-015B,EARTH,TEME,UTC,SGP4,2026-05-06T05:52:37.453152,0.99085182,0.00024805,10.4488,48.2819,291.2147,244.7172,0,U,27400,999,8815,0.00000000000000,-0.00000041,0.0000000000000,42500.695,1453.295,36133.102,36112.018,PAYLOAD,LARGE,SES,2002-03-29,FRGUI,,5176958,322266723,0 ASTRA 3A,1 27400U 02015B   26126.24487793 -.00000041  00000-0  00000-0 0  9998,2 27400  10.4488  48.2819 0002481 291.2147 244.7172  0.99085182 88154,27400
3.0,GENERATED VIA SPACE-TRACK.ORG API,2026-05-06T14:56:52,18 SPCS,EUTE 21A (EUTE W3),1999-018A,EARTH,TEME,UTC,SGP4,2026-05-06T09:41:10.491360,0.98428838,0.000478,10.4611,51.1099,103.821,124.7899,0,U,25673,999,4114,0.00000000000000,-0.00000012,0.0000000000000,42689.421,1462.986,36331.692,36290.881,PAYLOAD,LARGE,EUTE,1999-04-12,AFETR,,5177568,322307526,0 EUTE 21A (EUTE W3),1 25673U 99018A   26126.40359365 -.00000012  00000-0  00000+0 0  9995,2 25673  10.4611  51.1099 0004780 103.8210 124.7899  0.98428838 41147,25673
3.0,GENERATED VIA SPACE-TRACK.ORG API,2026-05-06T14:56:52,18 SPCS,ARABSAT 2B,1996-063A,EARTH,TEME,UTC,SGP4,2026-05-06T13:05:48.645024,0.99412921,0.0001588,10.4994,49.1839,44.4187,174.2864,0,U,24652,999,10804,0.00000000000000,0.00000059,0.0000000000000,42407.234,1448.504,36035.834,36022.365,PAYLOAD,LARGE,AB,1996-11-13,FRGUI,,5177536,322306630,0 ARABSAT 2B,1 24652U 96063A   26126.54570191  .00000059  00000-0  00000+0 0  9995,2 24652  10.4994  49.1839 0001588  44.4187 174.2864  0.99412921108044,24652
3.0,GENERATED VIA SPACE-TRACK.ORG API,2026-05-06T02:32:52,18 SPCS,COSMOS 2440,2008-033A,EARTH,TEME,UTC,SGP4,2026-05-05T18:56:49.675776,1.0027118,0.00038182,10.503,41.4484,217.4558,329.1399,0,U,33108,999,6536,0.00000000000000,-0.00000141,0.0000000000000,42164.902,1436.106,35802.866,35770.667,PAYLOAD,LARGE,CIS,2008-06-27,TTMTR,,5176277,322220462,0 COSMOS 2440,1 33108U 08033A   26125.78946384 -.00000141  00000-0  00000-0 0  9991,2 33108  10.5030  41.4484 0003818 217.4558 329.1399  1.00271180 65369,33108
3.0,GENERATED VIA SPACE-TRACK.ORG API,2026-05-06T10:08:52,18 SPCS,INMARSAT 3-F1,1996-020A,EARTH,TEME,UTC,SGP4,2026-05-06T04:20:12.397920,0.99991513,0.00037441,10.5165,47.0167,345.842,204.6271,0,U,23839,999,10983,0.00000000000000,-0.00000282,0.0000000000000,42243.486,1440.122,35881.167,35849.535,PAYLOAD,LARGE,IM,1996-04-03,AFETR,,5176958,322265660,0 INMARSAT 3-F1,1 23839U 96020A   26126.18069905 -.00000282  00000-0  00000-0 0  9990,2 23839  10.5165  47.0167 0003744 345.8420 204.6271  0.99991513109833,23839
3.0,GENERATED VIA SPACE-TRACK.ORG API,2026-05-06T10:08:52,18 SPCS,ASTRA 1H,1999-033A,EARTH,TEME,UTC,SGP4,2026-05-06T01:09:06.556320,0.98946313,0.00072205,10.5457,48.7435,152.2104,38.3898,0,U,25785,999,5067,0.00000000000000,-0.00000182,0.0000000000000,42540.452,1455.335,36193.033,36131.6,PAYLOAD,LARGE,SES,1999-06-18,TTMTR,,5176958,322265897,0 ASTRA 1H,1 25785U 99033A   26126.04799255 -.00000182  00000-0  00000-0 0  9991,2 25785  10.5457  48.7435 0007220 152.2104  38.3898  0.98946313 50678,25785
3.0,GENERATED VIA SPACE-TRACK.ORG API,2026-05-06T14:56:52,18 SPCS,DIRECTV 1R,1999-056A,EARTH,TEME,UTC,SGP4,2026-05-06T11:40:40.257120,0.98959678,0.0004223,10.5765,48.8943,276.4706,296.7472,0,U,25937,999,9680,0.00000000000000,0.00000046,0.0000000000000,42536.621,1455.138,36176.45,36140.523,PAYLOAD,LARGE,US,1999-10-10,SEAL,,5177576,322307632,0 DIRECTV 1R,1 25937U 99056A   26126.48657705  .00000046  00000-0  00000+0 0  9993,2 25937  10.5765  48.8943 0004223 276.4706 296.7472  0.98959678 96802,25937
3.0,GENERATED VIA SPACE-TRACK.ORG API,2026-05-06T14:46:56,18 SPCS,RADUGA 18,1986-007A,EARTH,TEME,UTC,SGP4,2026-05-06T09:33:45.871776,0.98814757,0.0068989,10.5865,321.4741,200.5757,173.2269,0,U,16497,999,14545,0.00000000000000,-0.00000234,0.0000000000000,42578.201,1457.272,36493.808,35906.323,PAYLOAD,LARGE,CIS,1986-01-17,TTMTR,,5177290,322300501,0 RADUGA 18,1 16497U 86007A   26126.39844759 -.00000234  00000-0  00000+0 0  9993,2 16497  10.5865 321.4741 0068989 200.5757 173.2269  0.98814757145450,16497
3.0,GENERATED VIA SPACE-TRACK.ORG API,2026-05-05T10:20:49,18 SPCS,APSTAR 2R (TELSTAR 10),1997-062A,EARTH,TEME,UTC,SGP4,2026-05-05T04:22:38.779392,0.99210349,0.00109976,10.6331,48.1465,300.9576,237.6782,0,U,25010,999,10410,0.00000000000000,-0.00000183,0.0000000000000,42464.941,1451.461,36133.507,36040.104,PAYLOAD,LARGE,PRC,1997-10-16,XSC,,5174649,322145029,0 APSTAR 2R (TELSTAR 10),1 25010U 97062A   26125.18239328 -.00000183  00000-0  00000-0 0  9997,2 25010  10.6331  48.1465 0010998 300.9576 237.6782  0.99210349104107,25010
3.0,GENERATED VIA SPACE-TRACK.ORG API,2026-05-06T14:56:52,18 SPCS,BSAT-2A,2001-011B,EARTH,TEME,UTC,SGP4,2026-05-06T11:18:24.041376,0.99174721,0.0003011,10.647,47.8708,234.4414,191.0767,0,U,26720,999,9156,0.00000000000000,0.00000034,0.0000000000000,42475.11,1451.983,36109.765,36084.186,PAYLOAD,LARGE,JPN,2001-03-08,FRGUI,,5177597,322307893,0 BSAT-2A,1 26720U 01011B   26126.47111159  .00000034  00000-0  00000+0 0  9992,2 26720  10.6470  47.8708 0003011 234.4414 191.0767  0.99174721 91560,26720
3.0,GENERATED VIA SPACE-TRACK.ORG API,2026-05-06T14:56:52,18 SPCS,INTELSAT 709,1996-035A,EARTH,TEME,UTC,SGP4,2026-05-06T11:30:06.571008,0.99178016,0.0019051,10.6498,48.0234,237.1814,204.9091,0,U,23915,999,10899,0.00000000000000,-0.00000050,0.0000000000000,42474.17,1451.935,36176.952,36015.117,PAYLOAD,LARGE,ITSO,1996-06-15,FRGUI,,5177522,322306393,0 INTELSAT 709,1 23915U 96035A   26126.47924272 -.00000050  00000-0  00000+0 0  9992,2 23915  10.6498  48.0234 0019051 237.1814 204.9091  0.99178016108996,23915
3.0,GENERATED VIA SPACE-TRACK.ORG API,2026-05-06T14:46:56,18 SPCS,STTW-1,1986-010A,EARTH,TEME,UTC,SGP4,2026-05-06T11:51:39.954816,1.00220986,0.0002912,10.6713,323.8304,316.707,212.4674,0,U,16526,999,15504,0.00000000000000,-0.00000237,0.0000000000000,42178.979,1436.825,35813.126,35788.561,PAYLOAD,LARGE,PRC,1986-02-01,XSC,,5177290,322301002,0 STTW-1,1 16526U 86010A   26126.49421244 -.00000237  00000-0  00000+0 0  9994,2 16526  10.6713 323.8304 0002912 316.7070 212.4674  1.00220986155040,16526
3.0,GENERATED VIA SPACE-TRACK.ORG API,2026-05-06T14:46:56,18 SPCS,HIMAWARI 3 (GMS 3),1984-080A,EARTH,TEME,UTC,SGP4,2026-05-06T11:02:22.183008,0.99827922,0.0005427,10.6907,323.9461,128.3481,215.4613,0,U,15152,999,15222,0.00000000000000,-0.00000178,0.0000000000000,42289.624,1442.482,35934.439,35888.538,PAYLOAD,LARGE,JPN,1984-08-02,TNSTA,,5177272,322300762,0 HIMAWARI 3 (GMS 3),1 15152U 84080A   26126.45997897 -.00000178  00000-0  00000+0 0  9995,2 15152  10.6907 323.9461 0005427 128.3481 215.4613  0.99827922152224,15152
3.0,GENERATED VIA SPACE-TRACK.ORG API,2026-05-06T10:08:52,18 SPCS,BRAZILSAT B3,1998-006A,EARTH,TEME,UTC,SGP4,2026-05-06T01:10:28.924896,0.99220345,0.00015373,10.7149,47.9849,2.3703,194.1126,0,U,25152,999,4279,0.00000000000000,-0.00000144,0.0000000000000,42462.089,1451.315,36090.481,36077.426,PAYLOAD,LARGE,BRAZ,1998-02-04,FRGUI,,5176958,322265283,0 BRAZILSAT B3,1 25152U 98006A   26126.04894589 -.00000144  00000-0  00000-0 0  9992,2 25152  10.7149  47.9849 0001537   2.3703 194.1126  0.99220345 42791,25152
3.0,GENERATED VIA SPACE-TRACK.ORG API,2026-05-06T10:08:52,18 SPCS,AMC-2 (GE-2),1997-002A,EARTH,TEME,UTC,SGP4,2026-05-06T02:43:49.969056,0.99474096,3.666e-05,10.7309,45.5872,89.2475,100.3435,0,U,24713,999,10700,0.00000000000000,-0.00000259,0.0000000000000,42389.846,1447.613,36013.265,36010.157,PAYLOAD,LARGE,SES,1997-01-30,FRGUI,,5176958,322265708,0 AMC-2 (GE-2),1 24713U 97002A   26126.11377279 -.00000259  00000-0  00000-0 0  9996,2 24713  10.7309  45.5872 0000367  89.2475 100.3435  0.99474096107003,24713
